COSMOS 2534 [GLONASS-M] 
1 44299U 19030A   26191.12715837  .00000122  00000+0  00000+0 0  9997
2 44299  64.3705 191.8439 0013509 274.9524 182.9689  2.13102136 55418
BEIDOU-3 IGSO-2         
1 44337U 19035A   26191.30545166 -.00000087  00000+0  00000+0 0  9992
2 44337  55.2507 158.6604 0039608 216.3201 141.9995  1.00259088 25893
NAVSTAR 78 (USA 293)    
1 44506U 19056A   26190.83972038 -.00000079  00000+0  00000+0 0  9993
2 44506  55.6250 330.2434 0063211 198.0806 346.0647  2.00569870 50527
BEIDOU-3 M24            
1 44542U 19061A   26190.79451618  .00000116  00000+0  00000+0 0  9991
2 44542  54.3976 181.9655 0008591 359.5370   0.4709  1.86229286 46212
BEIDOU-3 M23            
1 44543U 19061B   26189.43788944  .00000122  00000+0  00000+0 0  9993
2 44543  54.3960 181.9796 0005860 339.6838 102.2392  1.86227401 46199
EUTELSAT 5 WEST B       
1 44624U 19067A   26191.33308481 -.00000032  00000+0  00000+0 0  9996
2 44624   0.0633 347.2780 0003030 124.0531 291.8313  1.00271316 24663
BEIDOU-3 M22            
1 44793U 19078A   26191.17164683 -.00000064  00000+0  00000+0 0  9996
2 44793  53.9138 299.0194 0005855  49.9813 310.0922  1.86227486 45076
BEIDOU-3 M21            
1 44794U 19078B   26189.16367219 -.00000063  00000+0  00000+0 0  9992
2 44794  53.8889 299.0507 0003790  48.5315 311.5256  1.86228045 45040
COSMOS 2544 [GLONASS-M] 
1 44850U 19088A   26191.02313839 -.00000024  00000+0  00000+0 0  9990
2 44850  65.5773  72.9693 0012337 255.3467 104.5773  2.13103012 51208
BEIDOU-3 M19            
1 44864U 19090A   26190.26753905 -.00000047  00000+0  00000+0 0  9990
2 44864  56.5775  62.0617 0016984 297.5653 280.0700  1.86231620 44644
BEIDOU-3 M20            
1 44865U 19090B   26191.16060929 -.00000046  00000+0  00000+0 0  9997
2 44865  56.5796  62.0669 0014879 312.5032 233.4737  1.86231480 44641
BEIDOU-3 G2             
1 45344U 20017A   26191.15500763 -.00000132  00000+0  00000+0 0  9991
2 45344   2.9077  47.6544 0002190  57.6305 318.6618  1.00269930 23496
COSMOS 2545 [GLONASS-M] 
1 45358U 20018A   26188.87178822 -.00000052  00000+0  00000+0 0  9990
2 45358  64.3418 311.6924 0009213 230.0449 129.8870  2.13102711 49103
BEIDOU-3 G3             
1 45807U 20040A   26191.30363164 -.00000345  00000+0  00000+0 0  9996
2 45807   2.5003  67.4792 0001852 329.9731 110.5737  1.00266611 22305
NAVSTAR 79 (USA 304)    
1 45854U 20041A   26190.41363906 -.00000051  00000+0  00000+0 0  9998
2 45854  56.6838  28.0825 0064868 204.5737 329.3412  2.00557912 44484
GALAXY 30 (G-30)        
1 46114U 20056C   26191.25700475  .00000000  00000+0  00000+0 0  9996
2 46114   0.0256  34.1445 0001938  79.9597 141.5979  1.00270345 21527
COSMOS 2547 [GLONASS-K] 
1 46805U 20075A   26189.53074253  .00000126  00000+0  00000+0 0  9999
2 46805  64.6013 191.7631 0009456 239.7730 120.1659  2.13100166 44369
NAVSTAR 80 (USA 309)    
1 46826U 20078A   26191.22518141  .00000111  00000+0  00000+0 0  9997
2 46826  53.9779 209.8444 0074426 207.6928 169.3151  2.00564821 41971
NAVSTAR 81 (USA 319)    
1 48859U 21054A   26191.16586108 -.00000081  00000+0  00000+0 0  9998
2 48859  55.1625 331.5367 0026334 228.5055 292.0216  2.00567329 37212
QZS-1R (MICHIBIKI-1R)   
1 49336U 21096A   26190.59313258 -.00000279  00000+0  00000+0 0  9994
2 49336  37.5047  79.2525 0754958 272.1428 281.8869  1.00247254 17237
GSAT0223 (GALILEO 27)   
1 49809U 21116A   26190.87460481 -.00000078  00000+0  00000+0 0  9991
2 49809  57.1531 341.0636 0002356 194.9735 168.6501  1.70475927 28572
GSAT0224 (GALILEO 28)   
1 49810U 21116B   26191.27355816 -.00000080  00000+0  00000+0 0  9996
2 49810  57.1533 341.0513 0001790 180.2049 180.8962  1.70475962 28607
COSMOS 2557 [GLONASS-K] 
1 52984U 22075A   26188.28712434 -.00000050  00000+0  00000+0 0  9994
2 52984  64.2857 313.7776 0010595 272.6042  87.2866  2.13102498 31145
COSMOS 2559 [GLONASS-K] 
1 54031U 22130A   26189.98384888 -.00000057  00000+0  00000+0 0  9994
2 54031  64.2570 313.8003 0012993 180.3657 179.6426  2.13101645 29156
COSMOS 2564 [GLONASS-M] 
1 54377U 22161A   26189.82701961  .00000127  00000+0  00000+0 0  9996
2 54377  64.7436 191.9933 0012253 225.0747 134.8592  2.13101979 28097
NAVSTAR 82 (USA 343)    
1 55268U 23009A   26191.13810753  .00000048  00000+0  00000+0 0  9997
2 55268  55.1237 147.6170 0006209 320.5296 218.5554  2.00569891 25705
BEIDOU-3 G4             
1 56564U 23066A   26191.30943833 -.00000270  00000+0  00000+0 0  9993
2 56564   0.4648 337.4315 0004855 187.7070  14.5230  1.00274299 11627
NVS-01 (IRNSS-1J)       
1 56759U 23076A   26191.30735832 -.00000323  00000+0  00000+0 0  9997
2 56759   2.1142 243.3193 0003456   7.3744 277.7053  1.00267057 11340
COSMOS 2569 [GLONASS-K2]
1 57517U 23114A   26189.37005777 -.00000024  00000+0  00000+0 0  9993
2 57517  65.3140  71.9064 0009905 296.3420  63.6175  2.13103725 22716
BEIDOU-3 M28            
1 58654U 23207A   26190.85154454 -.00000048  00000+0  00000+0 0  9997
2 58654  55.7728  61.5386 0002574   2.0527 358.0099  1.86229668 17265
BEIDOU-3 M26            
1 58655U 23207B   26190.64904029 -.00000049  00000+0  00000+0 0  9997
2 58655  55.7748  61.5320 0002179 324.2830  35.7636  1.86229622 17247
